{
  "norad_id": 60113,
  "name": "STARLINK-11201 [DTC]",
  "history": [
    {
      "epoch": "2026-03-28T19:40:36.211584Z",
      "apogee_km": 360.9584781606163,
      "perigee_km": 358.5565535236083,
      "latitude_deg": -2.1500533366012368e-05,
      "longitude_deg": 5.8874720885348815,
      "height_km": 360.20833718314094,
      "semi_major_axis_km": 6737.894515842112,
      "eccentricity": 0.00017824,
      "inclination_deg": 53.1607,
      "raan_deg": 127.2732,
      "arg_perigee_deg": 67.3667,
      "mean_anomaly_deg": 292.7539,
      "mean_motion_rev_day": 15.69699249
    },
    {
      "epoch": "2026-03-29T09:25:44.912352Z",
      "apogee_km": 360.79972820488547,
      "perigee_km": 358.75975653196565,
      "latitude_deg": 2.2497042662664493e-05,
      "longitude_deg": 156.21046010264246,
      "height_km": 360.3771170300516,
      "semi_major_axis_km": 6737.916742368426,
      "eccentricity": 0.00015138,
      "inclination_deg": 53.1599,
      "raan_deg": 124.4472,
      "arg_perigee_deg": 71.9639,
      "mean_anomaly_deg": 288.1544,
      "mean_motion_rev_day": 15.69691482
    },
    {
      "epoch": "2026-03-30T08:21:00.854784Z",
      "apogee_km": 360.60320660715934,
      "perigee_km": 358.8939397949489,
      "latitude_deg": 2.2817750912661304e-05,
      "longitude_deg": 166.74709832480954,
      "height_km": 360.73353443595835,
      "semi_major_axis_km": 6737.885573201053,
      "eccentricity": 0.00012684,
      "inclination_deg": 53.1594,
      "raan_deg": 119.7416,
      "arg_perigee_deg": 94.8057,
      "mean_anomaly_deg": 265.3106,
      "mean_motion_rev_day": 15.69702374
    },
    {
      "epoch": "2026-03-30T19:02:47.969664Z",
      "apogee_km": 360.56482786616925,
      "perigee_km": 358.92604010057585,
      "latitude_deg": 2.0762039716587866e-05,
      "longitude_deg": 3.664398915557358,
      "height_km": 360.7275537835382,
      "semi_major_axis_km": 6737.882433983372,
      "eccentricity": 0.00012161,
      "inclination_deg": 53.1593,
      "raan_deg": 117.5445,
      "arg_perigee_deg": 94.8092,
      "mean_anomaly_deg": 265.3065,
      "mean_motion_rev_day": 15.69703471
    },
    {
      "epoch": "2026-03-31T11:51:19.287936Z",
      "apogee_km": 360.6152653958179,
      "perigee_km": 358.9729620661574,
      "latitude_deg": 5.147917112848036e-05,
      "longitude_deg": 107.39112117198172,
      "height_km": 360.6720045600975,
      "semi_major_axis_km": 6737.931113730987,
      "eccentricity": 0.00012187,
      "inclination_deg": 53.159,
      "raan_deg": 114.092,
      "arg_perigee_deg": 87.5234,
      "mean_anomaly_deg": 272.5924,
      "mean_motion_rev_day": 15.6968646
    },
    {
      "epoch": "2026-04-01T18:25:00.661728Z",
      "apogee_km": 360.50228663098096,
      "perigee_km": 359.0522874764065,
      "latitude_deg": 4.527090044543928e-06,
      "longitude_deg": 1.433281141608685,
      "height_km": 360.7328511567987,
      "semi_major_axis_km": 6737.914287053693,
      "eccentricity": 0.0001076,
      "inclination_deg": 53.1582,
      "raan_deg": 107.8117,
      "arg_perigee_deg": 93.3271,
      "mean_anomaly_deg": 266.787,
      "mean_motion_rev_day": 15.6969234
    },
    {
      "epoch": "2026-04-02T17:20:13.791840Z",
      "apogee_km": 360.40706131211937,
      "perigee_km": 358.95438781070334,
      "latitude_deg": 9.173520597826643e-06,
      "longitude_deg": 11.979972749592628,
      "height_km": 360.4499813564855,
      "semi_major_axis_km": 6737.817724561411,
      "eccentricity": 0.0001078,
      "inclination_deg": 53.1584,
      "raan_deg": 103.1044,
      "arg_perigee_deg": 78.5415,
      "mean_anomaly_deg": 281.5724,
      "mean_motion_rev_day": 15.69726084
    },
    {
      "epoch": "2026-04-02T17:20:13.792704Z",
      "apogee_km": 360.40706131211937,
      "perigee_km": 358.95438781070334,
      "latitude_deg": 9.173520602651092e-06,
      "longitude_deg": 11.97996913973558,
      "height_km": 360.4499813564855,
      "semi_major_axis_km": 6737.817724561411,
      "eccentricity": 0.0001078,
      "inclination_deg": 53.1584,
      "raan_deg": 103.1044,
      "arg_perigee_deg": 78.5415,
      "mean_anomaly_deg": 281.5724,
      "mean_motion_rev_day": 15.69726084
    },
    {
      "epoch": "2026-04-03T10:08:46.097664Z",
      "apogee_km": 360.52210003837536,
      "perigee_km": 358.9447645701721,
      "latitude_deg": 4.6591512525950935e-05,
      "longitude_deg": 115.70117316605676,
      "height_km": 360.4682280984789,
      "semi_major_axis_km": 6737.870432304273,
      "eccentricity": 0.00011705,
      "inclination_deg": 53.1558,
      "raan_deg": 99.6505,
      "arg_perigee_deg": 76.9304,
      "mean_anomaly_deg": 283.1845,
      "mean_motion_rev_day": 15.69707665
    },
    {
      "epoch": "2026-04-04T09:04:02.377920Z",
      "apogee_km": 360.2601515470433,
      "perigee_km": 359.15150688792346,
      "latitude_deg": 5.041463074061418e-05,
      "longitude_deg": 126.23670142928303,
      "height_km": 360.7261567216433,
      "semi_major_axis_km": 6737.842829217483,
      "eccentricity": 8.227e-05,
      "inclination_deg": 53.1568,
      "raan_deg": 94.9452,
      "arg_perigee_deg": 101.0914,
      "mean_anomaly_deg": 259.0197,
      "mean_motion_rev_day": 15.69717311
    },
    {
      "epoch": "2026-04-05T09:30:59.354784Z",
      "apogee_km": 360.75184914885267,
      "perigee_km": 358.7752186482285,
      "latitude_deg": 4.5340550619682996e-05,
      "longitude_deg": 113.47160141199879,
      "height_km": 360.38624334184544,
      "semi_major_axis_km": 6737.90053389854,
      "eccentricity": 0.00014668,
      "inclination_deg": 53.1592,
      "raan_deg": 89.9216,
      "arg_perigee_deg": 72.9098,
      "mean_anomaly_deg": 287.2081,
      "mean_motion_rev_day": 15.69697146
    },
    {
      "epoch": "2026-04-06T03:51:10.688832Z",
      "apogee_km": 360.4235818764728,
      "perigee_km": 358.9300780629219,
      "latitude_deg": -5.460462520232614e-06,
      "longitude_deg": -166.09491565805303,
      "height_km": 360.33385671497985,
      "semi_major_axis_km": 6737.8138299696975,
      "eccentricity": 0.00011083,
      "inclination_deg": 53.1595,
      "raan_deg": 86.1554,
      "arg_perigee_deg": 69.8967,
      "mean_anomaly_deg": 290.217,
      "mean_motion_rev_day": 15.69727445
    },
    {
      "epoch": "2026-04-07T05:49:49.406880Z",
      "apogee_km": 360.5456250551215,
      "perigee_km": 358.97502118910234,
      "latitude_deg": 5.428287997977447e-05,
      "longitude_deg": 157.8426460570298,
      "height_km": 360.5753854011469,
      "semi_major_axis_km": 6737.897323122112,
      "eccentricity": 0.00011655,
      "inclination_deg": 53.1586,
      "raan_deg": 80.8211,
      "arg_perigee_deg": 82.805,
      "mean_anomaly_deg": 277.3101,
      "mean_motion_rev_day": 15.69698268
    },
    {
      "epoch": "2026-04-08T15:26:51.716832Z",
      "apogee_km": 360.61496411699045,
      "perigee_km": 358.8323956955146,
      "latitude_deg": 3.216014507841819e-05,
      "longitude_deg": 5.297386774158049,
      "height_km": 360.73068515398734,
      "semi_major_axis_km": 6737.860679906252,
      "eccentricity": 0.00013228,
      "inclination_deg": 53.1574,
      "raan_deg": 73.9161,
      "arg_perigee_deg": 96.0495,
      "mean_anomaly_deg": 264.0674,
      "mean_motion_rev_day": 15.69711073
    },
    {
      "epoch": "2026-04-09T05:12:00.704448Z",
      "apogee_km": 360.3571377996832,
      "perigee_km": 359.09944786412325,
      "latitude_deg": -3.5815791418489767e-06,
      "longitude_deg": 155.61981504957203,
      "height_km": 360.71699659223196,
      "semi_major_axis_km": 6737.865292831903,
      "eccentricity": 9.333e-05,
      "inclination_deg": 53.1577,
      "raan_deg": 71.0908,
      "arg_perigee_deg": 96.8559,
      "mean_anomaly_deg": 263.2565,
      "mean_motion_rev_day": 15.69709461
    },
    {
      "epoch": "2026-04-10T07:10:37.138944Z",
      "apogee_km": 360.332095563429,
      "perigee_km": 358.9517941687827,
      "latitude_deg": -1.5671121564980314e-07,
      "longitude_deg": 119.56477546060229,
      "height_km": 361.0663638425534,
      "semi_major_axis_km": 6737.778944866105,
      "eccentricity": 0.00010243,
      "inclination_deg": 53.1583,
      "raan_deg": 65.7544,
      "arg_perigee_deg": 137.6935,
      "mean_anomaly_deg": 222.4162,
      "mean_motion_rev_day": 15.69739636
    },
    {
      "epoch": "2026-04-11T21:22:43.866336Z",
      "apogee_km": 360.50161713370926,
      "perigee_km": 358.9007067864277,
      "latitude_deg": 3.8013647624467004e-05,
      "longitude_deg": -102.87802495867011,
      "height_km": 360.68001661312104,
      "semi_major_axis_km": 6737.838161960068,
      "eccentricity": 0.0001188,
      "inclination_deg": 53.1569,
      "raan_deg": 57.9085,
      "arg_perigee_deg": 94.7046,
      "mean_anomaly_deg": 265.4108,
      "mean_motion_rev_day": 15.69718942
    },
    {
      "epoch": "2026-04-13T05:28:05.683584Z",
      "apogee_km": 360.6278196742833,
      "perigee_km": 358.75712869906965,
      "latitude_deg": 9.655217627165024e-06,
      "longitude_deg": 127.87188359670246,
      "height_km": 360.62383017275425,
      "semi_major_axis_km": 6737.829474186676,
      "eccentricity": 0.00013882,
      "inclination_deg": 53.1565,
      "raan_deg": 51.3172,
      "arg_perigee_deg": 91.1315,
      "mean_anomaly_deg": 268.9862,
      "mean_motion_rev_day": 15.69721978
    },
    {
      "epoch": "2026-04-14T19:40:11.210016Z",
      "apogee_km": 360.4787036849175,
      "perigee_km": 358.9007046707993,
      "latitude_deg": 2.4943576572213474e-05,
      "longitude_deg": -94.56741142069897,
      "height_km": 360.5487766989245,
      "semi_major_axis_km": 6737.826704177858,
      "eccentricity": 0.0001171,
      "inclination_deg": 53.1568,
      "raan_deg": 43.4698,
      "arg_perigee_deg": 86.0649,
      "mean_anomaly_deg": 274.0503,
      "mean_motion_rev_day": 15.69722946
    }
  ]
}